[{"OBJECT_NAME":"SKYSAT-C8","OBJECT_ID":"2017-068D","EPOCH":"2026-03-09T21:52:56.080416","MEAN_MOTION":15.34771458,"ECCENTRICITY":0.00013769,"INCLINATION":97.4375,"RA_OF_ASC_NODE":204.4632,"ARG_OF_PERICENTER":100.7274,"MEAN_ANOMALY":259.4124,"EPHEMERIS_TYPE":0,"CLASSIFICATION_TYPE":"U","NORAD_CAT_ID":42990,"ELEMENT_SET_NO":999,"REV_AT_EPOCH":46707,"BSTAR":0.00019561304,"MEAN_MOTION_DOT":6.512e-5,"MEAN_MOTION_DDOT":0},{"OBJECT_NAME":"STARLINK-32264","OBJECT_ID":"2024-191X","EPOCH":"2026-03-09T22:00:01.999584","MEAN_MOTION":15.32024028,"ECCENTRICITY":0.00040062,"INCLINATION":42.9989,"RA_OF_ASC_NODE":156.3486,"ARG_OF_PERICENTER":35.4785,"MEAN_ANOMALY":15.2929,"EPHEMERIS_TYPE":0,"CLASSIFICATION_TYPE":"U","NORAD_CAT_ID":61642,"ELEMENT_SET_NO":999,"REV_AT_EPOCH":585,"BSTAR":0.0023821033,"MEAN_MOTION_DOT":0.00075714,"MEAN_MOTION_DDOT":0}]
